[{"OBJECT_NAME":"SL-12 R/B(2)","OBJECT_ID":"1986-090D","EPOCH":"2026-03-05T02:31:14.547072","MEAN_MOTION":1.00310016,"ECCENTRICITY":0.00076063,"INCLINATION":10.5018,"RA_OF_ASC_NODE":323.3923,"ARG_OF_PERICENTER":183.8062,"MEAN_ANOMALY":176.166,"EPHEMERIS_TYPE":0,"CLASSIFICATION_TYPE":"U","NORAD_CAT_ID":17125,"ELEMENT_SET_NO":999,"REV_AT_EPOCH":14382,"BSTAR":0,"MEAN_MOTION_DOT":-3.76e-6,"MEAN_MOTION_DDOT":0},{"OBJECT_NAME":"GOES 7","OBJECT_ID":"1987-022A","EPOCH":"2026-03-05T03:32:38.692320","MEAN_MOTION":0.99894951,"ECCENTRICITY":0.00039576,"INCLINATION":13.0201,"RA_OF_ASC_NODE":338.3692,"ARG_OF_PERICENTER":14.7932,"MEAN_ANOMALY":88.6766,"EPHEMERIS_TYPE":0,"CLASSIFICATION_TYPE":"U","NORAD_CAT_ID":17561,"ELEMENT_SET_NO":999,"REV_AT_EPOCH":12592,"BSTAR":0,"MEAN_MOTION_DOT":7.8e-7,"MEAN_MOTION_DDOT":0},{"OBJECT_NAME":"AGILA 1 (PALAPA B2P)","OBJECT_ID":"1987-029A","EPOCH":"2026-03-04T17:22:38.756352","MEAN_MOTION":0.99914224,"ECCENTRICITY":0.0002983,"INCLINATION":14.4128,"RA_OF_ASC_NODE":348.9675,"ARG_OF_PERICENTER":6.7389,"MEAN_ANOMALY":191.7577,"EPHEMERIS_TYPE":0,"CLASSIFICATION_TYPE":"U","NORAD_CAT_ID":17706,"ELEMENT_SET_NO":999,"REV_AT_EPOCH":4148,"BSTAR":0,"MEAN_MOTION_DOT":-3.72e-6,"MEAN_MOTION_DDOT":0},{"OBJECT_NAME":"SL-12 R/B(2)","OBJECT_ID":"1976-092F","EPOCH":"2026-03-05T00:10:04.973664","MEAN_MOTION":1.00225765,"ECCENTRICITY":0.00149219,"INCLINATION":3.7309,"RA_OF_ASC_NODE":271.675,"ARG_OF_PERICENTER":193.0721,"MEAN_ANOMALY":144.9774,"EPHEMERIS_TYPE":0,"CLASSIFICATION_TYPE":"U","NORAD_CAT_ID":17872,"ELEMENT_SET_NO":999,"REV_AT_EPOCH":11787,"BSTAR":0,"MEAN_MOTION_DOT":-1.81e-6,"MEAN_MOTION_DDOT":0},{"OBJECT_NAME":"SL-12 R/B(2)","OBJECT_ID":"1979-035E","EPOCH":"2026-03-05T05:38:28.363200","MEAN_MOTION":1.00144325,"ECCENTRICITY":0.00255068,"INCLINATION":5.4812,"RA_OF_ASC_NODE":283.1227,"ARG_OF_PERICENTER":252.1684,"MEAN_ANOMALY":114.3422,"EPHEMERIS_TYPE":0,"CLASSIFICATION_TYPE":"U","NORAD_CAT_ID":17873,"ELEMENT_SET_NO":999,"REV_AT_EPOCH":18413,"BSTAR":0,"MEAN_MOTION_DOT":1.35e-6,"MEAN_MOTION_DDOT":0},{"OBJECT_NAME":"SL-12 R/B(2)","OBJECT_ID":"1984-016F","EPOCH":"2026-03-03T19:27:22.340736","MEAN_MOTION":1.00293375,"ECCENTRICITY":0.0034009,"INCLINATION":8.7765,"RA_OF_ASC_NODE":311.5619,"ARG_OF_PERICENTER":228.3334,"MEAN_ANOMALY":325.7091,"EPHEMERIS_TYPE":0,"CLASSIFICATION_TYPE":"U","NORAD_CAT_ID":17874,"ELEMENT_SET_NO":999,"REV_AT_EPOCH":12179,"BSTAR":0,"MEAN_MOTION_DOT":7.3e-7,"MEAN_MOTION_DDOT":0},{"OBJECT_NAME":"COSMOS 1888","OBJECT_ID":"1987-084A","EPOCH":"2026-03-05T03:57:02.734272","MEAN_MOTION":1.00172654,"ECCENTRICITY":0.00025176,"INCLINATION":10.943,"RA_OF_ASC_NODE":326.7417,"ARG_OF_PERICENTER":299.0202,"MEAN_ANOMALY":63.2058,"EPHEMERIS_TYPE":0,"CLASSIFICATION_TYPE":"U","NORAD_CAT_ID":18384,"ELEMENT_SET_NO":999,"REV_AT_EPOCH":14065,"BSTAR":0,"MEAN_MOTION_DOT":-3.47e-6,"MEAN_MOTION_DDOT":0},{"OBJECT_NAME":"SL-12 R/B(2)","OBJECT_ID":"1987-084D","EPOCH":"2026-03-04T10:13:38.563392","MEAN_MOTION":1.00051954,"ECCENTRICITY":0.0029048,"INCLINATION":11.0961,"RA_OF_ASC_NODE":327.3473,"ARG_OF_PERICENTER":250.7551,"MEAN_ANOMALY":293.6955,"EPHEMERIS_TYPE":0,"CLASSIFICATION_TYPE":"U","NORAD_CAT_ID":18387,"ELEMENT_SET_NO":999,"REV_AT_EPOCH":14772,"BSTAR":0,"MEAN_MOTION_DOT":7.6e-7,"MEAN_MOTION_DDOT":0},{"OBJECT_NAME":"COSMOS 1894","OBJECT_ID":"1987-091A","EPOCH":"2026-03-05T02:29:38.591232","MEAN_MOTION":1.00265202,"ECCENTRICITY":0.00053755,"INCLINATION":10.9023,"RA_OF_ASC_NODE":326.2113,"ARG_OF_PERICENTER":8.3327,"MEAN_ANOMALY":204.876,"EPHEMERIS_TYPE":0,"CLASSIFICATION_TYPE":"U","NORAD_CAT_ID":18443,"ELEMENT_SET_NO":999,"REV_AT_EPOCH":11977,"BSTAR":0,"MEAN_MOTION_DOT":-1.85e-6,"MEAN_MOTION_DDOT":0},{"OBJECT_NAME":"SL-12 R/B(2)","OBJECT_ID":"1987-091D","EPOCH":"2026-03-04T13:58:38.818272","MEAN_MOTION":1.00234085,"ECCENTRICITY":0.0022427,"INCLINATION":10.9367,"RA_OF_ASC_NODE":326.3848,"ARG_OF_PERICENTER":266.046,"MEAN_ANOMALY":286.2336,"EPHEMERIS_TYPE":0,"CLASSIFICATION_TYPE":"U","NORAD_CAT_ID":18446,"ELEMENT_SET_NO":999,"REV_AT_EPOCH":12895,"BSTAR":0,"MEAN_MOTION_DOT":-2.59e-6,"MEAN_MOTION_DDOT":0},{"OBJECT_NAME":"COSMOS 1897","OBJECT_ID":"1987-096A","EPOCH":"2026-03-04T23:57:22.803840","MEAN_MOTION":1.0032265,"ECCENTRICITY":0.00051015,"INCLINATION":11.1682,"RA_OF_ASC_NODE":327.5738,"ARG_OF_PERICENTER":131.8769,"MEAN_ANOMALY":133.3123,"EPHEMERIS_TYPE":0,"CLASSIFICATION_TYPE":"U","NORAD_CAT_ID":18575,"ELEMENT_SET_NO":999,"REV_AT_EPOCH":14014,"BSTAR":0,"MEAN_MOTION_DOT":-8.1e-7,"MEAN_MOTION_DDOT":0},{"OBJECT_NAME":"SL-12 R/B(2)","OBJECT_ID":"1987-096D","EPOCH":"2026-03-05T05:03:54.175680","MEAN_MOTION":1.00575617,"ECCENTRICITY":0.00221014,"INCLINATION":10.9617,"RA_OF_ASC_NODE":326.8393,"ARG_OF_PERICENTER":248.8828,"MEAN_ANOMALY":304.8004,"EPHEMERIS_TYPE":0,"CLASSIFICATION_TYPE":"U","NORAD_CAT_ID":18578,"ELEMENT_SET_NO":999,"REV_AT_EPOCH":13698,"BSTAR":0,"MEAN_MOTION_DOT":-2.83e-6,"MEAN_MOTION_DDOT":0},{"OBJECT_NAME":"RADUGA 21","OBJECT_ID":"1987-100A","EPOCH":"2026-03-04T02:55:38.763552","MEAN_MOTION":1.00356384,"ECCENTRICITY":0.00016314,"INCLINATION":11.456,"RA_OF_ASC_NODE":326.0021,"ARG_OF_PERICENTER":308.8377,"MEAN_ANOMALY":168.9352,"EPHEMERIS_TYPE":0,"CLASSIFICATION_TYPE":"U","NORAD_CAT_ID":18631,"ELEMENT_SET_NO":999,"REV_AT_EPOCH":14003,"BSTAR":0,"MEAN_MOTION_DOT":-2.2e-7,"MEAN_MOTION_DDOT":0},{"OBJECT_NAME":"STTW-2","OBJECT_ID":"1988-014A","EPOCH":"2026-03-05T00:09:17.349984","MEAN_MOTION":1.00301431,"ECCENTRICITY":0.00033541,"INCLINATION":13.3471,"RA_OF_ASC_NODE":340.439,"ARG_OF_PERICENTER":186.125,"MEAN_ANOMALY":67.317,"EPHEMERIS_TYPE":0,"CLASSIFICATION_TYPE":"U","NORAD_CAT_ID":18922,"ELEMENT_SET_NO":999,"REV_AT_EPOCH":13906,"BSTAR":0,"MEAN_MOTION_DOT":-6.2e-7,"MEAN_MOTION_DDOT":0},{"OBJECT_NAME":"SPACENET 3R","OBJECT_ID":"1988-018A","EPOCH":"2026-03-03T22:49:46.263360","MEAN_MOTION":0.99659334,"ECCENTRICITY":0.0005506,"INCLINATION":14.6808,"RA_OF_ASC_NODE":0.4818,"ARG_OF_PERICENTER":287.0534,"MEAN_ANOMALY":257.9452,"EPHEMERIS_TYPE":0,"CLASSIFICATION_TYPE":"U","NORAD_CAT_ID":18951,"ELEMENT_SET_NO":999,"REV_AT_EPOCH":12356,"BSTAR":0,"MEAN_MOTION_DOT":8.8e-7,"MEAN_MOTION_DDOT":0},{"OBJECT_NAME":"COSMOS 1940","OBJECT_ID":"1988-034A","EPOCH":"2026-03-03T22:35:02.674752","MEAN_MOTION":1.00656752,"ECCENTRICITY":0.0021792,"INCLINATION":11.1122,"RA_OF_ASC_NODE":327.2642,"ARG_OF_PERICENTER":295.7836,"MEAN_ANOMALY":226.9733,"EPHEMERIS_TYPE":0,"CLASSIFICATION_TYPE":"U","NORAD_CAT_ID":19073,"ELEMENT_SET_NO":999,"REV_AT_EPOCH":12029,"BSTAR":0,"MEAN_MOTION_DOT":-4.4e-7,"MEAN_MOTION_DDOT":0},{"OBJECT_NAME":"SL-12 R/B(2)","OBJECT_ID":"1988-034D","EPOCH":"2026-03-05T06:35:15.416736","MEAN_MOTION":1.00083161,"ECCENTRICITY":0.00220592,"INCLINATION":11.408,"RA_OF_ASC_NODE":328.2562,"ARG_OF_PERICENTER":189.7329,"MEAN_ANOMALY":344.9497,"EPHEMERIS_TYPE":0,"CLASSIFICATION_TYPE":"U","NORAD_CAT_ID":19076,"ELEMENT_SET_NO":999,"REV_AT_EPOCH":13806,"BSTAR":0,"MEAN_MOTION_DOT":-2.0e-8,"MEAN_MOTION_DDOT":0}]
